start=new Date('2022-08-24T00:00:00.000Z').valueOf();
sats=[{"CLASSIFICATION_TYPE":"U","RA_OF_ASC_NODE":"84.9518","OBJECT_NAME":"STARLINK-2101","OBJECT_ID":"2021-005AJ","ELEMENT_SET_NO":"999","CENTER_NAME":"EARTH","MEAN_ELEMENT_THEORY":"SGP4","APOAPSIS":"548.309","PERIAPSIS":"546.132","REF_FRAME":"TEME","TIME_SYSTEM":"UTC","INCLINATION":"53.0537","SITE":"AFETR","MEAN_MOTION_DDOT":"0.0000000000000","BSTAR":"0.00009093500000","SEMIMAJOR_AXIS":"6925.356","LAUNCH_DATE":"2021-01-20","TLE_LINE1":"1 47381U 21005AJ  22235.85457463  .00001073  00000-0  90935-4 0  9998","RCS_SIZE":"LARGE","ARG_OF_PERICENTER":"70.9499","GP_ID":"210860532","PERIOD":"95.592","ECCENTRICITY":"0.00015720","NORAD_CAT_ID":"47381","EPOCH":"2022-08-23T20:30:35.248032","REV_AT_EPOCH":"8838","DECAY_DATE":null,"FILE":"3545624","OBJECT_TYPE":"PAYLOAD","MEAN_MOTION_DOT":"0.00001073","MEAN_ANOMALY":"289.1660","TLE_LINE2":"2 47381  53.0537  84.9518 0001572  70.9499 289.1660 15.06397714 88388","MEAN_MOTION":"15.06397714","EPHEMERIS_TYPE":"0","COUNTRY_CODE":"US"},{"PERIOD":"95.592","ECCENTRICITY":"0.00015540","EPOCH":"2022-08-23T19:56:43.942560","REV_AT_EPOCH":"8844","NORAD_CAT_ID":"47382","DECAY_DATE":null,"LAUNCH_DATE":"2021-01-20","TLE_LINE1":"1 47382U 21005AK  22235.83106415  .00000678  00000-0  64411-4 0  9995","RCS_SIZE":"LARGE","GP_ID":"210860775","ARG_OF_PERICENTER":"81.8140","COUNTRY_CODE":"US","OBJECT_TYPE":"PAYLOAD","FILE":"3545624","MEAN_MOTION_DOT":"0.00000678","TLE_LINE2":"2 47382  53.0537  79.9843 0001554  81.8140 278.3025 15.06399221 88445","MEAN_ANOMALY":"278.3025","MEAN_MOTION":"15.06399221","EPHEMERIS_TYPE":"0","ELEMENT_SET_NO":"999","CENTER_NAME":"EARTH","MEAN_ELEMENT_THEORY":"SGP4","APOAPSIS":"548.292","PERIAPSIS":"546.140","REF_FRAME":"TEME","CLASSIFICATION_TYPE":"U","RA_OF_ASC_NODE":"79.9843","OBJECT_ID":"2021-005AK","OBJECT_NAME":"STARLINK-2102","INCLINATION":"53.0537","SITE":"AFETR","MEAN_MOTION_DDOT":"0.0000000000000","BSTAR":"0.00006441100000","SEMIMAJOR_AXIS":"6925.351","TIME_SYSTEM":"UTC"},{"RCS_SIZE":"LARGE","LAUNCH_DATE":"2021-01-20","TLE_LINE1":"1 47383U 21005AL  22234.92061933  .00002591  00000-0  19281-3 0  9990","GP_ID":"210822016","ARG_OF_PERICENTER":"77.6386","ECCENTRICITY":"0.00014690","PERIOD":"95.593","DECAY_DATE":null,"NORAD_CAT_ID":"47383","EPOCH":"2022-08-22T22:05:41.510112","REV_AT_EPOCH":"8845","MEAN_MOTION_DOT":"0.00002591","TLE_LINE2":"2 47383  53.0543  74.0691 0001469  77.6386 282.4767 15.06389208 88454","MEAN_ANOMALY":"282.4767","FILE":"3545070","OBJECT_TYPE":"PAYLOAD","MEAN_MOTION":"15.06389208","EPHEMERIS_TYPE":"0","COUNTRY_CODE":"US","CLASSIFICATION_TYPE":"U","RA_OF_ASC_NODE":"74.0691","OBJECT_ID":"2021-005AL","OBJECT_NAME":"STARLINK-2103","CENTER_NAME":"EARTH","MEAN_ELEMENT_THEORY":"SGP4","ELEMENT_SET_NO":"999","PERIAPSIS":"546.229","APOAPSIS":"548.264","REF_FRAME":"TEME","TIME_SYSTEM":"UTC","SITE":"AFETR","INCLINATION":"53.0543","SEMIMAJOR_AXIS":"6925.382","MEAN_MOTION_DDOT":"0.0000000000000","BSTAR":"0.00019281000000"},{"COUNTRY_CODE":"US","MEAN_MOTION":"15.06395821","EPHEMERIS_TYPE":"0","MEAN_MOTION_DOT":"-0.00000560","TLE_LINE2":"2 47384  53.0540  79.9810 0001346  79.2083 280.9057 15.06395821 88458","MEAN_ANOMALY":"280.9057","FILE":"3545624","OBJECT_TYPE":"PAYLOAD","DECAY_DATE":null,"NORAD_CAT_ID":"47384","EPOCH":"2022-08-23T21:11:05.198784","REV_AT_EPOCH":"8845","ECCENTRICITY":"0.00013460","PERIOD":"95.592","GP_ID":"210859779","ARG_OF_PERICENTER":"79.2083","RCS_SIZE":"LARGE","LAUNCH_DATE":"2021-01-20","TLE_LINE1":"1 47384U 21005AM  22235.88269906 -.00000560  00000-0 -18694-4 0  9991","SEMIMAJOR_AXIS":"6925.361","MEAN_MOTION_DDOT":"0.0000000000000","BSTAR":"-0.00001869400000","SITE":"AFETR","INCLINATION":"53.0540","TIME_SYSTEM":"UTC","APOAPSIS":"548.159","PERIAPSIS":"546.294","REF_FRAME":"TEME","CENTER_NAME":"EARTH","MEAN_ELEMENT_THEORY":"SGP4","ELEMENT_SET_NO":"999","RA_OF_ASC_NODE":"79.9810","OBJECT_ID":"2021-005AM","OBJECT_NAME":"STARLINK-2104","CLASSIFICATION_TYPE":"U"},{"SEMIMAJOR_AXIS":"6925.363","BSTAR":"0.00017408000000","MEAN_MOTION_DDOT":"0.0000000000000","SITE":"AFETR","INCLINATION":"53.0544","TIME_SYSTEM":"UTC","REF_FRAME":"TEME","PERIAPSIS":"546.256","APOAPSIS":"548.200","MEAN_ELEMENT_THEORY":"SGP4","CENTER_NAME":"EARTH","ELEMENT_SET_NO":"999","OBJECT_ID":"2021-005AN","OBJECT_NAME":"STARLINK-2105","RA_OF_ASC_NODE":"79.7654","CLASSIFICATION_TYPE":"U","COUNTRY_CODE":"US","EPHEMERIS_TYPE":"0","MEAN_MOTION":"15.06395257","MEAN_ANOMALY":"284.5816","TLE_LINE2":"2 47385  53.0544  79.7654 0001403  75.5329 284.5816 15.06395257 88459","MEAN_MOTION_DOT":"0.00002312","FILE":"3545624","OBJECT_TYPE":"PAYLOAD","DECAY_DATE":null,"NORAD_CAT_ID":"47385","EPOCH":"2022-08-23T21:05:43.766592","REV_AT_EPOCH":"8845","ECCENTRICITY":"0.00014030","PERIOD":"95.592","GP_ID":"210860033","ARG_OF_PERICENTER":"75.5329","RCS_SIZE":"LARGE","TLE_LINE1":"1 47385U 21005AN  22235.87897878  .00002312  00000-0  17408-3 0  9992","LAUNCH_DATE":"2021-01-20"},{"TIME_SYSTEM":"UTC","INCLINATION":"53.0543","SITE":"AFETR","BSTAR":"0.00012698000000","MEAN_MOTION_DDOT":"0.0000000000000","SEMIMAJOR_AXIS":"6925.343","CLASSIFICATION_TYPE":"U","OBJECT_NAME":"STARLINK-2106","OBJECT_ID":"2021-005AP","RA_OF_ASC_NODE":"79.9310","ELEMENT_SET_NO":"999","MEAN_ELEMENT_THEORY":"SGP4","CENTER_NAME":"EARTH","REF_FRAME":"TEME","APOAPSIS":"548.494","PERIAPSIS":"545.922","OBJECT_TYPE":"PAYLOAD","FILE":"3545624","MEAN_ANOMALY":"280.7760","TLE_LINE2":"2 47386  53.0543  79.9310 0001857  79.3438 280.7760 15.06401728 88453","MEAN_MOTION_DOT":"0.00001610","EPHEMERIS_TYPE":"0","MEAN_MOTION":"15.06401728","COUNTRY_CODE":"US","TLE_LINE1":"1 47386U 21005AP  22235.84212538  .00001610  00000-0  12698-3 0  9990","LAUNCH_DATE":"2021-01-20","RCS_SIZE":"LARGE","GP_ID":"210860276","ARG_OF_PERICENTER":"79.3438","PERIOD":"95.592","ECCENTRICITY":"0.00018570","NORAD_CAT_ID":"47386","EPOCH":"2022-08-23T20:12:39.632832","REV_AT_EPOCH":"8845","DECAY_DATE":null},{"ELEMENT_SET_NO":"999","CENTER_NAME":"EARTH","MEAN_ELEMENT_THEORY":"SGP4","APOAPSIS":"548.193","PERIAPSIS":"546.236","REF_FRAME":"TEME","CLASSIFICATION_TYPE":"U","RA_OF_ASC_NODE":"110.2852","OBJECT_NAME":"STARLINK-2108","OBJECT_ID":"2021-005AQ","INCLINATION":"53.0545","SITE":"AFETR","MEAN_MOTION_DDOT":"0.0000000000000","BSTAR":"0.00004776500000","SEMIMAJOR_AXIS":"6925.349","TIME_SYSTEM":"UTC","PERIOD":"95.592","ECCENTRICITY":"0.00014130","EPOCH":"2022-08-23T18:17:13.066656","REV_AT_EPOCH":"8801","NORAD_CAT_ID":"47387","DECAY_DATE":null,"LAUNCH_DATE":"2021-01-20","TLE_LINE1":"1 47387U 21005AQ  22235.76195679  .00000430  00000-0  47765-4 0  9991","RCS_SIZE":"LARGE","GP_ID":"210859032","ARG_OF_PERICENTER":"88.8067","COUNTRY_CODE":"US","OBJECT_TYPE":"PAYLOAD","FILE":"3545624","MEAN_MOTION_DOT":"0.00000430","TLE_LINE2":"2 47387  53.0545 110.2852 0001413  88.8067 271.3084 15.06399832 88016","MEAN_ANOMALY":"271.3084","MEAN_MOTION":"15.06399832","EPHEMERIS_TYPE":"0"},{"TIME_SYSTEM":"UTC","SITE":"AFETR","INCLINATION":"53.0537","SEMIMAJOR_AXIS":"6925.358","BSTAR":"0.00027193000000","MEAN_MOTION_DDOT":"0.0000000000000","CLASSIFICATION_TYPE":"U","OBJECT_ID":"2021-005AR","OBJECT_NAME":"STARLINK-2109","RA_OF_ASC_NODE":"110.2179","MEAN_ELEMENT_THEORY":"SGP4","CENTER_NAME":"EARTH","ELEMENT_SET_NO":"999","REF_FRAME":"TEME","PERIAPSIS":"546.113","APOAPSIS":"548.332","TLE_LINE2":"2 47388  53.0537 110.2179 0001602  75.2306 284.8860 15.06396977 88014","MEAN_ANOMALY":"284.8860","MEAN_MOTION_DOT":"0.00003771","OBJECT_TYPE":"PAYLOAD","FILE":"3545624","EPHEMERIS_TYPE":"0","MEAN_MOTION":"15.06396977","COUNTRY_CODE":"US","RCS_SIZE":"LARGE","TLE_LINE1":"1 47388U 21005AR  22235.77670751  .00003771  00000-0  27193-3 0  9995","LAUNCH_DATE":"2021-01-20","ARG_OF_PERICENTER":"75.2306","GP_ID":"210859280","ECCENTRICITY":"0.00016020","PERIOD":"95.592","DECAY_DATE":null,"EPOCH":"2022-08-23T18:38:27.528864","NORAD_CAT_ID":"47388","REV_AT_EPOCH":"8801"},{"MEAN_MOTION_DOT":"0.00000067","TLE_LINE2":"2 47389  53.0558  90.6136 0001565  79.6380 280.4786 15.06399824 88282","MEAN_ANOMALY":"280.4786","FILE":"3545624","OBJECT_TYPE":"PAYLOAD","MEAN_MOTION":"15.06399824","EPHEMERIS_TYPE":"0","COUNTRY_CODE":"US","RCS_SIZE":"LARGE","LAUNCH_DATE":"2021-01-20","TLE_LINE1":"1 47389U 21005AS  22235.68913052  .00000067  00000-0  23417-4 0  9991","ARG_OF_PERICENTER":"79.6380","GP_ID":"210860533","ECCENTRICITY":"0.00015650","PERIOD":"95.592","DECAY_DATE":null,"NORAD_CAT_ID":"47389","EPOCH":"2022-08-23T16:32:20.876928","REV_AT_EPOCH":"8828","TIME_SYSTEM":"UTC","SITE":"AFETR","INCLINATION":"53.0558","SEMIMAJOR_AXIS":"6925.349","MEAN_MOTION_DDOT":"0.0000000000000","BSTAR":"0.00002341700000","CLASSIFICATION_TYPE":"U","RA_OF_ASC_NODE":"90.6136","OBJECT_NAME":"STARLINK-2110","OBJECT_ID":"2021-005AS","CENTER_NAME":"EARTH","MEAN_ELEMENT_THEORY":"SGP4","ELEMENT_SET_NO":"999","PERIAPSIS":"546.130","APOAPSIS":"548.298","REF_FRAME":"TEME"},{"INCLINATION":"53.0545","SITE":"AFETR","BSTAR":"0.00006406000000","MEAN_MOTION_DDOT":"0.0000000000000","SEMIMAJOR_AXIS":"6925.345","TIME_SYSTEM":"UTC","ELEMENT_SET_NO":"999","MEAN_ELEMENT_THEORY":"SGP4","CENTER_NAME":"EARTH","REF_FRAME":"TEME","APOAPSIS":"548.250","PERIAPSIS":"546.170","CLASSIFICATION_TYPE":"U","OBJECT_ID":"2021-005AT","OBJECT_NAME":"STARLINK-2111","RA_OF_ASC_NODE":"109.7483","COUNTRY_CODE":"US","OBJECT_TYPE":"PAYLOAD","FILE":"3545624","TLE_LINE2":"2 47390  53.0545 109.7483 0001502  76.3260 283.7897 15.06401191 88032","MEAN_ANOMALY":"283.7897","MEAN_MOTION_DOT":"0.00000673","EPHEMERIS_TYPE":"0","MEAN_MOTION":"15.06401191","PERIOD":"95.592","ECCENTRICITY":"0.00015020","REV_AT_EPOCH":"8803","NORAD_CAT_ID":"47390","EPOCH":"2022-08-23T21:12:22.068000","DECAY_DATE":null,"TLE_LINE1":"1 47390U 21005AT  22235.88358875  .00000673  00000-0  64060-4 0  9993","LAUNCH_DATE":"2021-01-20","RCS_SIZE":"LARGE","GP_ID":"210860776","ARG_OF_PERICENTER":"76.3260"}];
